{
  "type": "FeatureCollection",
  "features": [
    {
      "type": "Feature",
      "properties": {
        "norad_id": 30445,
        "name": "FENGYUN 1C DEB",
        "group": "fengyun-1c-debris",
        "lat": -60.63723911383474,
        "lon": 106.48598596125106,
        "alt_km": 778.0392049488391,
        "timestamp": "2025-12-16T23:36:36.472953+00:00",
        "meta_object_name": "FENGYUN 1C DEB",
        "meta_object_id": "1999-025AFG",
        "meta_epoch": "2025-12-16T07:34:31.852416",
        "meta_mean_motion": 14.48767674,
        "meta_eccentricity": 0.01057311,
        "meta_inclination": 98.8349,
        "meta_ra_of_asc_node": 301.8354,
        "meta_arg_of_pericenter": 7.6228,
        "meta_mean_anomaly": 352.6541,
        "meta_ephemeris_type": 0,
        "meta_classification_type": "U",
        "meta_norad_cat_id": 30445,
        "meta_element_set_no": 999,
        "meta_rev_at_epoch": 99236,
        "meta_bstar": 0.00058592538,
        "meta_mean_motion_dot": 2.32e-05,
        "meta_mean_motion_ddot": 0,
        "tle_line1": "1 30445U 99025AFG 25350.31564644  .00002320  00000+0  58593-3 0  9998",
        "tle_line2": "2 30445  98.8349 301.8354 0105731   7.6228 352.6541 14.48767674992364"
      },
      "geometry": {
        "type": "Point",
        "coordinates": [
          106.48598596125106,
          -60.63723911383474
        ]
      }
    },
    {
      "type": "Feature",
      "properties": {
        "norad_id": 30446,
        "name": "FENGYUN 1C DEB",
        "group": "fengyun-1c-debris",
        "lat": -38.78395869609784,
        "lon": 80.53989272788169,
        "alt_km": 763.2530052631473,
        "timestamp": "2025-12-16T23:36:36.472963+00:00",
        "meta_object_name": "FENGYUN 1C DEB",
        "meta_object_id": "1999-025AFH",
        "meta_epoch": "2025-12-16T03:50:47.613120",
        "meta_mean_motion": 14.44766858,
        "meta_eccentricity": 0.00346429,
        "meta_inclination": 98.6141,
        "meta_ra_of_asc_node": 72.7089,
        "meta_arg_of_pericenter": 88.1529,
        "meta_mean_anomaly": 272.3628,
        "meta_ephemeris_type": 0,
        "meta_classification_type": "U",
        "meta_norad_cat_id": 30446,
        "meta_element_set_no": 999,
        "meta_rev_at_epoch": 98226,
        "meta_bstar": 0.0011742857,
        "meta_mean_motion_dot": 4.064e-05,
        "meta_mean_motion_ddot": 0,
        "tle_line1": "1 30446U 99025AFH 25350.16027330  .00004064  00000+0  11743-2 0  9990",
        "tle_line2": "2 30446  98.6141  72.7089 0034642  88.1529 272.3628 14.44766858982263"
      },
      "geometry": {
        "type": "Point",
        "coordinates": [
          80.53989272788169,
          -38.78395869609784
        ]
      }
    },
    {
      "type": "Feature",
      "properties": {
        "norad_id": 30447,
        "name": "FENGYUN 1C DEB",
        "group": "fengyun-1c-debris",
        "lat": -77.32601187784134,
        "lon": -11.776337458439922,
        "alt_km": 730.4057343569903,
        "timestamp": "2025-12-16T23:36:36.472974+00:00",
        "meta_object_name": "FENGYUN 1C DEB",
        "meta_object_id": "1999-025AFJ",
        "meta_epoch": "2025-12-16T03:13:40.287648",
        "meta_mean_motion": 14.56666069,
        "meta_eccentricity": 0.00602149,
        "meta_inclination": 98.9726,
        "meta_ra_of_asc_node": 211.9446,
        "meta_arg_of_pericenter": 20.6157,
        "meta_mean_anomaly": 110.0279,
        "meta_ephemeris_type": 0,
        "meta_classification_type": "U",
        "meta_norad_cat_id": 30447,
        "meta_element_set_no": 999,
        "meta_rev_at_epoch": 98145,
        "meta_bstar": 0.0017216967,
        "meta_mean_motion_dot": 7.829e-05,
        "meta_mean_motion_ddot": 0,
        "tle_line1": "1 30447U 99025AFJ 25350.13449407  .00007829  00000+0  17217-2 0  9995",
        "tle_line2": "2 30447  98.9726 211.9446 0060214  20.6157 110.0279 14.56666069981458"
      },
      "geometry": {
        "type": "Point",
        "coordinates": [
          -11.776337458439922,
          -77.32601187784134
        ]
      }
    },
    {
      "type": "Feature",
      "properties": {
        "norad_id": 30448,
        "name": "FENGYUN 1C DEB",
        "group": "fengyun-1c-debris",
        "lat": 14.461047376109827,
        "lon": 80.37937743494884,
        "alt_km": 763.7383923929028,
        "timestamp": "2025-12-16T23:36:36.472984+00:00",
        "meta_object_name": "FENGYUN 1C DEB",
        "meta_object_id": "1999-025AFK",
        "meta_epoch": "2025-12-16T05:23:15.244800",
        "meta_mean_motion": 14.35170565,
        "meta_eccentricity": 0.0016884,
        "meta_inclination": 98.8313,
        "meta_ra_of_asc_node": 81.9007,
        "meta_arg_of_pericenter": 1.0028,
        "meta_mean_anomaly": 53.0474,
        "meta_ephemeris_type": 0,
        "meta_classification_type": "U",
        "meta_norad_cat_id": 30448,
        "meta_element_set_no": 999,
        "meta_rev_at_epoch": 97388,
        "meta_bstar": 0.0013236338,
        "meta_mean_motion_dot": 3.744e-05,
        "meta_mean_motion_ddot": 0,
        "tle_line1": "1 30448U 99025AFK 25350.22448200  .00003744  00000+0  13236-2 0  9995",
        "tle_line2": "2 30448  98.8313  81.9007 0016884   1.0028  53.0474 14.35170565973881"
      },
      "geometry": {
        "type": "Point",
        "coordinates": [
          80.37937743494884,
          14.461047376109827
        ]
      }
    },
    {
      "type": "Feature",
      "properties": {
        "norad_id": 30450,
        "name": "FENGYUN 1C DEB",
        "group": "fengyun-1c-debris",
        "lat": -5.416549348469399,
        "lon": -175.84578396361198,
        "alt_km": 559.05404761729,
        "timestamp": "2025-12-16T23:36:36.472995+00:00",
        "meta_object_name": "FENGYUN 1C DEB",
        "meta_object_id": "1999-025AFM",
        "meta_epoch": "2025-12-16T00:05:18.631968",
        "meta_mean_motion": 14.61807182,
        "meta_eccentricity": 0.01892513,
        "meta_inclination": 98.0806,
        "meta_ra_of_asc_node": 3.9675,
        "meta_arg_of_pericenter": 197.9866,
        "meta_mean_anomaly": 233.1742,
        "meta_ephemeris_type": 0,
        "meta_classification_type": "U",
        "meta_norad_cat_id": 30450,
        "meta_element_set_no": 999,
        "meta_rev_at_epoch": 99590,
        "meta_bstar": 0.0003965148,
        "meta_mean_motion_dot": 2.501e-05,
        "meta_mean_motion_ddot": 0,
        "tle_line1": "1 30450U 99025AFM 25350.00368787  .00002501  00000+0  39651-3 0  9995",
        "tle_line2": "2 30450  98.0806   3.9675 0189251 197.9866 233.1742 14.61807182995909"
      },
      "geometry": {
        "type": "Point",
        "coordinates": [
          -175.84578396361198,
          -5.416549348469399
        ]
      }
    },
    {
      "type": "Feature",
      "properties": {
        "norad_id": 30452,
        "name": "FENGYUN 1C DEB",
        "group": "fengyun-1c-debris",
        "lat": 50.507026389581554,
        "lon": 118.73527390853364,
        "alt_km": 707.8798061692705,
        "timestamp": "2025-12-16T23:36:36.473005+00:00",
        "meta_object_name": "FENGYUN 1C DEB",
        "meta_object_id": "1999-025AFP",
        "meta_epoch": "2025-12-16T08:52:09.750720",
        "meta_mean_motion": 14.64702943,
        "meta_eccentricity": 0.00495725,
        "meta_inclination": 99.3199,
        "meta_ra_of_asc_node": 129.5345,
        "meta_arg_of_pericenter": 241.9517,
        "meta_mean_anomaly": 172.7008,
        "meta_ephemeris_type": 0,
        "meta_classification_type": "U",
        "meta_norad_cat_id": 30452,
        "meta_element_set_no": 999,
        "meta_rev_at_epoch": 98160,
        "meta_bstar": 0.0028499817,
        "meta_mean_motion_dot": 0.00015416,
        "meta_mean_motion_ddot": 0,
        "tle_line1": "1 30452U 99025AFP 25350.36955730  .00015416  00000+0  28500-2 0  9995",
        "tle_line2": "2 30452  99.3199 129.5345 0049572 241.9517 172.7008 14.64702943981600"
      },
      "geometry": {
        "type": "Point",
        "coordinates": [
          118.73527390853364,
          50.507026389581554
        ]
      }
    },
    {
      "type": "Feature",
      "properties": {
        "norad_id": 30453,
        "name": "FENGYUN 1C DEB",
        "group": "fengyun-1c-debris",
        "lat": -45.46091903487315,
        "lon": -126.35400202746999,
        "alt_km": 734.4088757018608,
        "timestamp": "2025-12-16T23:36:36.473015+00:00",
        "meta_object_name": "FENGYUN 1C DEB",
        "meta_object_id": "1999-025AFQ",
        "meta_epoch": "2025-12-16T04:08:43.813248",
        "meta_mean_motion": 14.24783083,
        "meta_eccentricity": 0.01158666,
        "meta_inclination": 98.8137,
        "meta_ra_of_asc_node": 61.9035,
        "meta_arg_of_pericenter": 216.3722,
        "meta_mean_anomaly": 171.8375,
        "meta_ephemeris_type": 0,
        "meta_classification_type": "U",
        "meta_norad_cat_id": 30453,
        "meta_element_set_no": 999,
        "meta_rev_at_epoch": 97283,
        "meta_bstar": 0.0010596705,
        "meta_mean_motion_dot": 2.604e-05,
        "meta_mean_motion_ddot": 0,
        "tle_line1": "1 30453U 99025AFQ 25350.17272932  .00002604  00000+0  10597-2 0  9993",
        "tle_line2": "2 30453  98.8137  61.9035 0115866 216.3722 171.8375 14.24783083972838"
      },
      "geometry": {
        "type": "Point",
        "coordinates": [
          -126.35400202746999,
          -45.46091903487315
        ]
      }
    }
  ]
}